{"type": "FeatureCollection", "features": [ {"type": "Feature", "properties": {"norad_id": 66535, "name": "STARLINK-35514", "group": "last-30-days", "lat": -42.92967344921717, "lon": -36.55710238317982, "alt_km": 417.3610854925955, "timestamp": "2025-12-12T05:47:27.525455+00:00", "meta": {"OBJECT_NAME": "STARLINK-35514", "OBJECT_ID": "2025-265V", "EPOCH": "2025-12-11T20:00:01.999872", "MEAN_MOTION": 15.50578974, "ECCENTRICITY": 0.00017438, "INCLINATION": 43.0005, "RA_OF_ASC_NODE": 59.2309, "ARG_OF_PERICENTER": 274.1208, "MEAN_ANOMALY": 233.5701, "EPHEMERIS_TYPE": 0, "CLASSIFICATION_TYPE": "U", "NORAD_CAT_ID": 66535, "ELEMENT_SET_NO": 999, "REV_AT_EPOCH": 484, "BSTAR": -0.00097835607, "MEAN_MOTION_DOT": -0.0005732, "MEAN_MOTION_DDOT": 0}, "tle": {"line1": "1 66535U 25265V   25345.83335648 -.00057320  00000+0 -97836-3 0  9998", "line2": "2 66535  43.0005  59.2309 0001743 274.1208 233.5701 15.50578974  4844"}}, "geometry": {"type": "Point", "coordinates": [-36.55710238317982, -42.92967344921717]}}, {"type": "Feature", "properties": {"norad_id": 66536, "name": "STARLINK-35640", "group": "last-30-days", "lat": -42.97729698471167, "lon": -33.94211263319882, "alt_km": 417.6160617533942, "timestamp": "2025-12-12T05:47:27.525468+00:00", "meta": {"OBJECT_NAME": "STARLINK-35640", "OBJECT_ID": "2025-265W", "EPOCH": "2025-12-11T20:00:01.999872", "MEAN_MOTION": 15.50568568, "ECCENTRICITY": 0.00013757, "INCLINATION": 43.0004, "RA_OF_ASC_NODE": 59.2262, "ARG_OF_PERICENTER": 272.0348, "MEAN_ANOMALY": 237.5864, "EPHEMERIS_TYPE": 0, "CLASSIFICATION_TYPE": "U", "NORAD_CAT_ID": 66536, "ELEMENT_SET_NO": 999, "REV_AT_EPOCH": 482, "BSTAR": -0.00085962279, "MEAN_MOTION_DOT": -0.00050429, "MEAN_MOTION_DDOT": 0}, "tle": {"line1": "1 66536U 25265W   25345.83335648 -.00050429  00000+0 -85962-3 0  9999", "line2": "2 66536  43.0004  59.2262 0001375 272.0348 237.5864 15.50568568  4825"}}, "geometry": {"type": "Point", "coordinates": [-33.94211263319882, -42.97729698471167]}}, {"type": "Feature", "properties": {"norad_id": 66537, "name": "STARLINK-35582", "group": "last-30-days", "lat": -42.965339685291774, "lon": -31.332709140391582, "alt_km": 417.5995309846912, "timestamp": "2025-12-12T05:47:27.525480+00:00", "meta": {"OBJECT_NAME": "STARLINK-35582", "OBJECT_ID": "2025-265X", "EPOCH": "2025-12-11T20:00:01.999872", "MEAN_MOTION": 15.50583563, "ECCENTRICITY": 0.00013961, "INCLINATION": 43.0004, "RA_OF_ASC_NODE": 59.2214, "ARG_OF_PERICENTER": 271.5222, "MEAN_ANOMALY": 240.0041, "EPHEMERIS_TYPE": 0, "CLASSIFICATION_TYPE": "U", "NORAD_CAT_ID": 66537, "ELEMENT_SET_NO": 999, "REV_AT_EPOCH": 484, "BSTAR": -0.0012001637, "MEAN_MOTION_DOT": -0.00070133, "MEAN_MOTION_DDOT": 0}, "tle": {"line1": "1 66537U 25265X   25345.83335648 -.00070133  00000+0 -12002-2 0  9998", "line2": "2 66537  43.0004  59.2214 0001396 271.5222 240.0041 15.50583563  4841"}}, "geometry": {"type": "Point", "coordinates": [-31.332709140391582, -42.965339685291774]}}, {"type": "Feature", "properties": {"norad_id": 66538, "name": "STARLINK-35577", "group": "last-30-days", "lat": -42.89402775682889, "lon": -28.726388387281965, "alt_km": 417.65921082207205, "timestamp": "2025-12-12T05:47:27.525490+00:00", "meta": {"OBJECT_NAME": "STARLINK-35577", "OBJECT_ID": "2025-265Y", "EPOCH": "2025-12-11T20:00:01.999872", "MEAN_MOTION": 15.50564644, "ECCENTRICITY": 0.0001276, "INCLINATION": 43.0005, "RA_OF_ASC_NODE": 59.2163, "ARG_OF_PERICENTER": 270.4463, "MEAN_ANOMALY": 243.0039, "EPHEMERIS_TYPE": 0, "CLASSIFICATION_TYPE": "U", "NORAD_CAT_ID": 66538, "ELEMENT_SET_NO": 999, "REV_AT_EPOCH": 484, "BSTAR": -0.0006450958, "MEAN_MOTION_DOT": -0.00037983, "MEAN_MOTION_DDOT": 0}, "tle": {"line1": "1 66538U 25265Y   25345.83335648 -.00037983  00000+0 -64510-3 0  9997", "line2": "2 66538  43.0005  59.2163 0001276 270.4463 243.0039 15.50564644  4847"}}, "geometry": {"type": "Point", "coordinates": [-28.726388387281965, -42.89402775682889]}}, {"type": "Feature", "properties": {"norad_id": 66539, "name": "STARLINK-35697", "group": "last-30-days", "lat": -42.76165022953034, "lon": -26.099101398506118, "alt_km": 417.50761242817225, "timestamp": "2025-12-12T05:47:27.525500+00:00", "meta": {"OBJECT_NAME": "STARLINK-35697", "OBJECT_ID": "2025-265Z", "EPOCH": "2025-12-11T20:00:01.999872", "MEAN_MOTION": 15.50594913, "ECCENTRICITY": 0.00016875, "INCLINATION": 43.0005, "RA_OF_ASC_NODE": 59.2117, "ARG_OF_PERICENTER": 254.2807, "MEAN_ANOMALY": 261.1002, "EPHEMERIS_TYPE": 0, "CLASSIFICATION_TYPE": "U", "NORAD_CAT_ID": 66539, "ELEMENT_SET_NO": 999, "REV_AT_EPOCH": 484, "BSTAR": -0.001885546, "MEAN_MOTION_DOT": -0.00109489, "MEAN_MOTION_DDOT": 0}, "tle": {"line1": "1 66539U 25265Z   25345.83335648 -.00109489  00000+0 -18855-2 0  9999", "line2": "2 66539  43.0005  59.2117 0001687 254.2807 261.1002 15.50594913  4848"}}, "geometry": {"type": "Point", "coordinates": [-26.099101398506118, -42.76165022953034]}}, {"type": "Feature", "properties": {"norad_id": 66540, "name": "STARLINK-35818", "group": "last-30-days", "lat": -42.57182467711905, "lon": -23.51769776764364, "alt_km": 417.3648329288326, "timestamp": "2025-12-12T05:47:27.525510+00:00", "meta": {"OBJECT_NAME": "STARLINK-35818", "OBJECT_ID": "2025-265AA", "EPOCH": "2025-12-11T20:00:01.999872", "MEAN_MOTION": 15.50472505, "ECCENTRICITY": 0.00017777, "INCLINATION": 43.0003, "RA_OF_ASC_NODE": 59.2068, "ARG_OF_PERICENTER": 266.4677, "MEAN_ANOMALY": 250.908, "EPHEMERIS_TYPE": 0, "CLASSIFICATION_TYPE": "U", "NORAD_CAT_ID": 66540, "ELEMENT_SET_NO": 999, "REV_AT_EPOCH": 484, "BSTAR": 0.0010435752, "MEAN_MOTION_DOT": 0.00061127, "MEAN_MOTION_DDOT": 0}, "tle": {"line1": "1 66540U 25265AA  25345.83335648  .00061127  00000+0  10436-2 0  9992", "line2": "2 66540  43.0003  59.2068 0001777 266.4677 250.9080 15.50472505  4847"}}, "geometry": {"type": "Point", "coordinates": [-23.51769776764364, -42.57182467711905]}}, {"type": "Feature", "properties": {"norad_id": 66541, "name": "STARLINK-35796", "group": "last-30-days", "lat": -42.330379862399724, "lon": -21.00983957674684, "alt_km": 417.1635262966347, "timestamp": "2025-12-12T05:47:27.525521+00:00", "meta": {"OBJECT_NAME": "STARLINK-35796", "OBJECT_ID": "2025-265AB", "EPOCH": "2025-12-11T20:00:01.999872", "MEAN_MOTION": 15.50670263, "ECCENTRICITY": 0.0001751, "INCLINATION": 43.0003, "RA_OF_ASC_NODE": 59.2023, "ARG_OF_PERICENTER": 268.3688, "MEAN_ANOMALY": 250.6868, "EPHEMERIS_TYPE": 0, "CLASSIFICATION_TYPE": "U", "NORAD_CAT_ID": 66541, "ELEMENT_SET_NO": 999, "REV_AT_EPOCH": 484, "BSTAR": -0.0017570291, "MEAN_MOTION_DOT": -0.00102416, "MEAN_MOTION_DDOT": 0}, "tle": {"line1": "1 66541U 25265AB  25345.83335648 -.00102416  00000+0 -17570-2 0  9998", "line2": "2 66541  43.0003  59.2023 0001751 268.3688 250.6868 15.50670263  4846"}}, "geometry": {"type": "Point", "coordinates": [-21.00983957674684, -42.330379862399724]}}, {"type": "Feature", "properties": {"norad_id": 66542, "name": "STARLINK-35833", "group": "last-30-days", "lat": -42.02138082664779, "lon": -18.421790653802322, "alt_km": 417.43159602945434, "timestamp": "2025-12-12T05:47:27.525531+00:00", "meta": {"OBJECT_NAME": "STARLINK-35833", "OBJECT_ID": "2025-265AC", "EPOCH": "2025-12-11T20:00:01.999872", "MEAN_MOTION": 15.50568854, "ECCENTRICITY": 0.00016161, "INCLINATION": 43.0004, "RA_OF_ASC_NODE": 59.1972, "ARG_OF_PERICENTER": 269.179, "MEAN_ANOMALY": 251.9457, "EPHEMERIS_TYPE": 0, "CLASSIFICATION_TYPE": "U", "NORAD_CAT_ID": 66542, "ELEMENT_SET_NO": 999, "REV_AT_EPOCH": 484, "BSTAR": -0.00092725199, "MEAN_MOTION_DOT": -0.00054344, "MEAN_MOTION_DDOT": 0}, "tle": {"line1": "1 66542U 25265AC  25345.83335648 -.00054344  00000+0 -92725-3 0  9991", "line2": "2 66542  43.0004  59.1972 0001616 269.1790 251.9457 15.50568854  4843"}}, "geometry": {"type": "Point", "coordinates": [-18.421790653802322, -42.02138082664779]}}, {"type": "Feature", "properties": {"norad_id": 66543, "name": "STARLINK-35315", "group": "last-30-days", "lat": -41.65993178346387, "lon": -15.896657742711033, "alt_km": 417.59005820589573, "timestamp": "2025-12-12T05:47:27.525541+00:00", "meta": {"OBJECT_NAME": "STARLINK-35315", "OBJECT_ID": "2025-265AD", "EPOCH": "2025-12-11T20:00:01.999872", "MEAN_MOTION": 15.50579473, "ECCENTRICITY": 0.00013635, "INCLINATION": 43.0004, "RA_OF_ASC_NODE": 59.1918, "ARG_OF_PERICENTER": 269.001, "MEAN_ANOMALY": 254.0381, "EPHEMERIS_TYPE": 0, "CLASSIFICATION_TYPE": "U", "NORAD_CAT_ID": 66543, "ELEMENT_SET_NO": 999, "REV_AT_EPOCH": 474, "BSTAR": -0.0011437337, "MEAN_MOTION_DOT": -0.00066869, "MEAN_MOTION_DDOT": 0}, "tle": {"line1": "1 66543U 25265AD  25345.83335648 -.00066869  00000+0 -11437-2 0  9997", "line2": "2 66543  43.0004  59.1918 0001363 269.0010 254.0381 15.50579473  4745"}}, "geometry": {"type": "Point", "coordinates": [-15.896657742711033, -41.65993178346387]}}, {"type": "Feature", "properties": {"norad_id": 66544, "name": "STARLINK-35728", "group": "last-30-days", "lat": -41.24676041381516, "lon": -13.418888918440603, "alt_km": 417.40350915462386, "timestamp": "2025-12-12T05:47:27.525553+00:00", "meta": {"OBJECT_NAME": "STARLINK-35728", "OBJECT_ID": "2025-265AE", "EPOCH": "2025-12-11T20:00:01.999872", "MEAN_MOTION": 15.50571363, "ECCENTRICITY": 0.00015986, "INCLINATION": 43.0003, "RA_OF_ASC_NODE": 59.1875, "ARG_OF_PERICENTER": 266.8376, "MEAN_ANOMALY": 258.1058, "EPHEMERIS_TYPE": 0, "CLASSIFICATION_TYPE": "U", "NORAD_CAT_ID": 66544, "ELEMENT_SET_NO": 999, "REV_AT_EPOCH": 484, "BSTAR": -0.00073460199, "MEAN_MOTION_DOT": -0.00043189, "MEAN_MOTION_DDOT": 0}, "tle": {"line1": "1 66544U 25265AE  25345.83335648 -.00043189  00000+0 -73460-3 0  9993", "line2": "2 66544  43.0003  59.1875 0001598 266.8376 258.1058 15.50571363  4844"}}, "geometry": {"type": "Point", "coordinates": [-13.418888918440603, -41.24676041381516]}}]}